CZ-4B R/B               
1 28059U 03049C   19111.31069625  .00000010  00000-0  14138-4 0  9997
2 28059  98.4987  17.8917 0050033 353.4483   6.6052 14.52558911821387
CZ-2C R/B               
1 28222U 04012C   19111.47142500  .00000415  00000-0  28919-4 0  9992
2 28222  97.6203  69.6690 0048577  39.8006  74.0298 15.10037391822190
SL-16 R/B               
1 28353U 04021B   19111.16378804  .00000306  00000-0  18535-3 0  9992
2 28353  70.9989 107.0816 0007159 259.9689 100.0625 14.14218867767307
CZ-2C R/B               
1 28480U 04046B   19110.81380112 -.00000022  00000-0  66339-5 0  9999
2 28480  98.1362 172.1597 0142688  38.8640  73.1619 14.25696345750074
ARIANE 5 R/B            
1 28499U 04049H   19111.34215100  .00000044  00000-0  12866-4 0  9993
2 28499  98.0483 206.9634 0091860 200.0381 206.2849 14.79958673773551
CZ-2D R/B               
1 28738U 05024B   19110.93834225  .00000255  00000-0  18639-4 0  9990
2 28738  97.4207 141.6080 0011500 198.9684 161.1120 15.11771190757410
SUZAKU (ASTRO-EII)      
1 28773U 05025A   19110.81855213  .00000757  00000-0  33018-4 0  9992
2 28773  31.3821 250.0725 0004719 266.7122  93.2986 15.17014087759568
ALOS (DAICHI)           
1 28931U 06002A   19111.43786565  .00000128  00000-0  33818-4 0  9996
2 28931  97.8192 113.7601 0001720  48.6557 311.4789 14.62598939705860
H-2A R/B                
1 28932U 06002B   19111.50399941  .00000093  00000-0  15121-4 0  9991
2 28932  98.2753  74.0486 0087636 265.5991 206.7244 14.91951185718180
AKARI (ASTRO-F)         
1 28939U 06005A   19110.82743851  .00003245  00000-0  92420-4 0  9997
2 28939  98.1914  33.4791 0098225   5.8640 354.3724 15.32279697716004
RESURS-DK 1             
1 29228U 06021A   19110.66339635  .00000065  00000-0  12227-4 0  9994
2 29228  69.9359 186.7604 0004023 349.3054  10.8020 15.02426767709091
GENESIS 1               
1 29252U 06029A   19110.91168914  .00000578  00000-0  38037-4 0  9993
2 29252  64.5040 246.6645 0052121 247.6926 111.8667 15.17662772703814
CZ-4B R/B               
1 29507U 06046C   19111.10057370 -.00000270  00000-0 -15951-4 0  9991
2 29507  97.7636 128.9256 0051196 143.4099 217.0639 15.00384419681938
CZ-2C R/B               
1 31114U 07010B   19111.18052202 -.00000012  00000-0  12855-4 0  9990
2 31114  98.3199 346.1384 0060815  60.4432 300.2788 14.19291983622981
COSMO-SKYMED 1          
1 31598U 07023A   19111.52413924 -.00000328  00000-0 -34648-4 0  9995
2 31598  97.8899 295.7187 0001534  92.6617 267.4820 14.82154659642186
GENESIS 2               
1 31789U 07028A   19110.89483353  .00000437  00000-0  32083-4 0  9994
2 31789  64.5036 287.2465 0046217 293.8752  65.7531 15.16887458650926
COSMOS 2428             
1 31792U 07029A   19111.33746662 -.00000345  00000-0 -16076-3 0  9997
2 31792  70.9508  80.8178 0009970 336.9740  23.0933 14.12510396609122
SL-16 R/B               
1 31793U 07029B   19110.93859044 -.00000215  00000-0 -87132-4 0  9990
2 31793  70.9773  56.0013 0002751 263.5394 162.9591 14.14416619609803
KORONAS-FOTON           
1 33504U 09003A   19110.94260322  .00000425  00000-0  20753-4 0  9999
2 33504  82.4397 284.1274 0017902 306.9162  53.0429 15.15383381563245
H-2A R/B                
1 38341U 12025E   19111.20168397  .00000154  00000-0  25579-4 0  9990
2 38341  98.4411 235.3928 0056380 151.6965 208.7331 14.83873815374685
CUSAT 2 & FALCON 9 R/B  
1 39271U 13055G   19110.76851347  .00006657  00000-0  16333-3 0  9992
2 39271  80.9703   1.4198 0603598   0.9297 359.2859 14.44457611289492
SL-4 R/B                
1 39679U 14021B   19110.87385673 -.00000099  00000-0  13493-4 0  9994
2 39679  51.6169 272.5502 0172306 278.3743  79.7726 15.06043322275187
ALOS-2                  
1 39766U 14029A   19111.53527754 -.00000387  00000-0 -44938-4 0  9990
2 39766  97.9185 209.1973 0001467  87.5132 272.6260 14.79467179265167
SL-27 R/B               
1 40354U 14084B   19110.92751513  .00000747  00000-0  19827-4 0  9997
2 40354  74.7387 183.8673 0039184 228.4474 131.3376 15.39622973242948
ASTRO-H (HITOMI)        
1 41337U 16012A   19110.58597168  .00000234  00000-0  12014-4 0  9990
2 41337  31.0047 177.0222 0012435 203.2454 156.7619 14.98570357173860
TIANGONG-2              
1 41765U 16057A   19111.57609818  .00004056  00000-0  50824-4 0  9997
2 41765  42.7839 304.5497 0008457 241.7293 175.7403 15.61293803148190
SHENZHOU-11 MODULE      
1 41868U 16061G   19110.80303638  .00013178  00000-0  75118-4 0  9990
2 41868  42.7926 239.3061 0006306 345.6708 139.4536 15.78803646138798
SAOCOM 1A               
1 43641U 18076A   19111.46485769 -.00000289  00000-0 -29806-4 0  9992
2 43641  97.8909 298.6421 0001601  78.5245 281.6101 14.82150807 28941
